SL-3 R/B                
1 13403U 82079B   25359.28992305  .00006244  00000+0  25620-3 0  9992
2 13403  81.1473 280.8668 0026937  58.7868 301.5999 15.23731446366360
SL-14 R/B               
1 13553U 82092B   25359.07599922  .00000462  00000+0  49223-4 0  9990
2 13553  82.5670 211.1746 0020145 184.5740 291.2625 14.86566846317844
SL-3 R/B                
1 13819U 83010B   25359.28290235  .00015415  00000+0  33806-3 0  9997
2 13819  81.1048  93.3052 0016527 306.4881  53.4838 15.43794739346454
SL-3 R/B                
1 14208U 83075B   25359.16301857  .00010877  00000+0  30598-3 0  9993
2 14208  97.6112 356.0652 0024011 132.4754 227.8525 15.36380396318708
COSMOS 1536             
1 14699U 84013A   25359.03022847  .00006100  00000+0  26003-3 0  9995
2 14699  82.5445 181.9740 0014484 180.4194 179.7033 15.22656989261256
SL-14 R/B               
1 14820U 84027B   25358.94643289  .00000560  00000+0  61385-4 0  9991
2 14820  82.5421 315.1086 0016911 217.0282 142.9769 14.85887015236537
SL-8 R/B                
1 15483U 85006B   25359.27818995  .00000268  00000+0  97611-4 0  9996
2 15483  74.0459  38.0659 0019206 327.7502 103.7672 14.37728516143331
SL-12 R/B(2)            
1 15772U 85042D   25359.13617247  .00000026  00000+0  33173-4 0  9994
2 15772  71.1070 245.2318 0037282 243.2852 224.6627 14.21955566103796
SL-14 R/B               
1 15945U 85069B   25359.29058626  .00000568  00000+0  61443-4 0  9994
2 15945  82.5273  94.9045 0020315  79.9498 280.4009 14.86338369161788
SL-16 R/B               
1 16182U 85097B   25359.28727593 -.00000186  00000+0 -69071-4 0  9997
2 16182  71.0036 297.1870 0007509 351.0333 117.0542 14.16587341 76698
SL-14 R/B               
1 16496U 86006B   25359.28621291  .00000623  00000+0  63531-4 0  9993
2 16496  82.5272 329.7453 0077275 158.2011 202.2526 14.86686801138158
COSMOS 1743             
1 16719U 86034A   25358.90094374  .00031881  00000+0  51251-3 0  9991
2 16719  82.5352 151.9536 0004971 202.7021 157.4012 15.52832870168620
