CCSDS_OMM_VERS = 2.0
CREATION_DATE  = 
ORIGINATOR     = 

OBJECT_NAME    = SL-3 R/B
OBJECT_ID      = 1982-079B
CENTER_NAME    = EARTH
REF_FRAME      = TEME
TIME_SYSTEM    = UTC
MEAN_ELEMENT_THEORY = SGP/SGP4

EPOCH          = 2025-12-25T06:57:29.351520
MEAN_MOTION    = 15.23731446
ECCENTRICITY   = .00269377
INCLINATION    = 81.1473
RA_OF_ASC_NODE = 280.8668
ARG_OF_PERICENTER = 58.7868
MEAN_ANOMALY   = 301.5999

EPHEMERIS_TYPE = 0
CLASSIFICATION_TYPE = U
NORAD_CAT_ID   = 13403
ELEMENT_SET_NO = 999
REV_AT_EPOCH   = 36636
BSTAR          = .25619953E-3
MEAN_MOTION_DOT = .6244E-4
MEAN_MOTION_DDOT = 0

CCSDS_OMM_VERS = 2.0
CREATION_DATE  = 
ORIGINATOR     = 

OBJECT_NAME    = SL-14 R/B
OBJECT_ID      = 1982-092B
CENTER_NAME    = EARTH
REF_FRAME      = TEME
TIME_SYSTEM    = UTC
MEAN_ELEMENT_THEORY = SGP/SGP4

EPOCH          = 2025-12-25T01:49:26.332608
MEAN_MOTION    = 14.86566846
ECCENTRICITY   = .00201454
INCLINATION    = 82.5670
RA_OF_ASC_NODE = 211.1746
ARG_OF_PERICENTER = 184.5740
MEAN_ANOMALY   = 291.2625

EPHEMERIS_TYPE = 0
CLASSIFICATION_TYPE = U
NORAD_CAT_ID   = 13553
ELEMENT_SET_NO = 999
REV_AT_EPOCH   = 31784
BSTAR          = .4922286E-4
MEAN_MOTION_DOT = .462E-5
MEAN_MOTION_DDOT = 0

CCSDS_OMM_VERS = 2.0
CREATION_DATE  = 
ORIGINATOR     = 

OBJECT_NAME    = SL-3 R/B
OBJECT_ID      = 1983-010B
CENTER_NAME    = EARTH
REF_FRAME      = TEME
TIME_SYSTEM    = UTC
MEAN_ELEMENT_THEORY = SGP/SGP4

EPOCH          = 2025-12-25T06:47:22.763040
MEAN_MOTION    = 15.43794739
ECCENTRICITY   = .00165272
INCLINATION    = 81.1048
RA_OF_ASC_NODE = 93.3052
ARG_OF_PERICENTER = 306.4881
MEAN_ANOMALY   = 53.4838

EPHEMERIS_TYPE = 0
CLASSIFICATION_TYPE = U
NORAD_CAT_ID   = 13819
ELEMENT_SET_NO = 999
REV_AT_EPOCH   = 34645
BSTAR          = .33806489E-3
MEAN_MOTION_DOT = .15415E-3
MEAN_MOTION_DDOT = 0

CCSDS_OMM_VERS = 2.0
CREATION_DATE  = 
ORIGINATOR     = 

OBJECT_NAME    = SL-3 R/B
OBJECT_ID      = 1983-075B
CENTER_NAME    = EARTH
REF_FRAME      = TEME
TIME_SYSTEM    = UTC
MEAN_ELEMENT_THEORY = SGP/SGP4

EPOCH          = 2025-12-25T03:54:44.804448
MEAN_MOTION    = 15.36380396
ECCENTRICITY   = .00240114
INCLINATION    = 97.6112
RA_OF_ASC_NODE = 356.0652
ARG_OF_PERICENTER = 132.4754
MEAN_ANOMALY   = 227.8525

EPHEMERIS_TYPE = 0
CLASSIFICATION_TYPE = U
NORAD_CAT_ID   = 14208
ELEMENT_SET_NO = 999
REV_AT_EPOCH   = 31870
BSTAR          = .30598481E-3
MEAN_MOTION_DOT = .10877E-3
MEAN_MOTION_DDOT = 0

CCSDS_OMM_VERS = 2.0
CREATION_DATE  = 
ORIGINATOR     = 

OBJECT_NAME    = COSMOS 1536
OBJECT_ID      = 1984-013A
CENTER_NAME    = EARTH
REF_FRAME      = TEME
TIME_SYSTEM    = UTC
MEAN_ELEMENT_THEORY = SGP/SGP4

EPOCH          = 2025-12-25T00:43:31.739808
MEAN_MOTION    = 15.22656989
ECCENTRICITY   = .00144841
INCLINATION    = 82.5445
RA_OF_ASC_NODE = 181.9740
ARG_OF_PERICENTER = 180.4194
MEAN_ANOMALY   = 179.7033

EPHEMERIS_TYPE = 0
CLASSIFICATION_TYPE = U
NORAD_CAT_ID   = 14699
ELEMENT_SET_NO = 999
REV_AT_EPOCH   = 26125
BSTAR          = .26003231E-3
MEAN_MOTION_DOT = .61E-4
MEAN_MOTION_DDOT = 0

CCSDS_OMM_VERS = 2.0
CREATION_DATE  = 
ORIGINATOR     = 

OBJECT_NAME    = SL-14 R/B
OBJECT_ID      = 1984-027B
CENTER_NAME    = EARTH
REF_FRAME      = TEME
TIME_SYSTEM    = UTC
MEAN_ELEMENT_THEORY = SGP/SGP4

EPOCH          = 2025-12-24T22:42:51.801696
MEAN_MOTION    = 14.85887015
ECCENTRICITY   = .0016911
INCLINATION    = 82.5421
RA_OF_ASC_NODE = 315.1086
ARG_OF_PERICENTER = 217.0282
MEAN_ANOMALY   = 142.9769

EPHEMERIS_TYPE = 0
CLASSIFICATION_TYPE = U
NORAD_CAT_ID   = 14820
ELEMENT_SET_NO = 999
REV_AT_EPOCH   = 23653
BSTAR          = .61385E-4
MEAN_MOTION_DOT = .56E-5
MEAN_MOTION_DDOT = 0

CCSDS_OMM_VERS = 2.0
CREATION_DATE  = 
ORIGINATOR     = 

OBJECT_NAME    = SL-8 R/B
OBJECT_ID      = 1985-006B
CENTER_NAME    = EARTH
REF_FRAME      = TEME
TIME_SYSTEM    = UTC
MEAN_ELEMENT_THEORY = SGP/SGP4

EPOCH          = 2025-12-25T06:40:35.611680
MEAN_MOTION    = 14.37728516
ECCENTRICITY   = .00192069
INCLINATION    = 74.0459
RA_OF_ASC_NODE = 38.0659
ARG_OF_PERICENTER = 327.7502
MEAN_ANOMALY   = 103.7672

EPHEMERIS_TYPE = 0
CLASSIFICATION_TYPE = U
NORAD_CAT_ID   = 15483
ELEMENT_SET_NO = 999
REV_AT_EPOCH   = 14333
BSTAR          = .97610872E-4
MEAN_MOTION_DOT = .268E-5
MEAN_MOTION_DDOT = 0

CCSDS_OMM_VERS = 2.0
CREATION_DATE  = 
ORIGINATOR     = 

OBJECT_NAME    = SL-12 R/B(2)
OBJECT_ID      = 1985-042D
CENTER_NAME    = EARTH
REF_FRAME      = TEME
TIME_SYSTEM    = UTC
MEAN_ELEMENT_THEORY = SGP/SGP4

EPOCH          = 2025-12-25T03:16:05.301408
MEAN_MOTION    = 14.21955566
ECCENTRICITY   = .00372826
INCLINATION    = 71.1070
RA_OF_ASC_NODE = 245.2318
ARG_OF_PERICENTER = 243.2852
MEAN_ANOMALY   = 224.6627

EPHEMERIS_TYPE = 0
CLASSIFICATION_TYPE = U
NORAD_CAT_ID   = 15772
ELEMENT_SET_NO = 999
REV_AT_EPOCH   = 10379
BSTAR          = .33173278E-4
MEAN_MOTION_DOT = .26E-6
MEAN_MOTION_DDOT = 0

CCSDS_OMM_VERS = 2.0
CREATION_DATE  = 
ORIGINATOR     = 

OBJECT_NAME    = SL-14 R/B
OBJECT_ID      = 1985-069B
CENTER_NAME    = EARTH
REF_FRAME      = TEME
TIME_SYSTEM    = UTC
MEAN_ELEMENT_THEORY = SGP/SGP4

EPOCH          = 2025-12-25T06:58:26.652864
MEAN_MOTION    = 14.86338369
ECCENTRICITY   = .00203151
INCLINATION    = 82.5273
RA_OF_ASC_NODE = 94.9045
ARG_OF_PERICENTER = 79.9498
MEAN_ANOMALY   = 280.4009

EPHEMERIS_TYPE = 0
CLASSIFICATION_TYPE = U
NORAD_CAT_ID   = 15945
ELEMENT_SET_NO = 999
REV_AT_EPOCH   = 16178
BSTAR          = .61443398E-4
MEAN_MOTION_DOT = .568E-5
MEAN_MOTION_DDOT = 0

CCSDS_OMM_VERS = 2.0
CREATION_DATE  = 
ORIGINATOR     = 

OBJECT_NAME    = SL-16 R/B
OBJECT_ID      = 1985-097B
CENTER_NAME    = EARTH
REF_FRAME      = TEME
TIME_SYSTEM    = UTC
MEAN_ELEMENT_THEORY = SGP/SGP4

EPOCH          = 2025-12-25T06:53:40.640352
MEAN_MOTION    = 14.16587341
ECCENTRICITY   = .00075099
INCLINATION    = 71.0036
RA_OF_ASC_NODE = 297.1870
ARG_OF_PERICENTER = 351.0333
MEAN_ANOMALY   = 117.0542

EPHEMERIS_TYPE = 0
CLASSIFICATION_TYPE = U
NORAD_CAT_ID   = 16182
ELEMENT_SET_NO = 999
REV_AT_EPOCH   = 7669
BSTAR          = -.69070962E-4
MEAN_MOTION_DOT = -.186E-5
MEAN_MOTION_DDOT = 0

CCSDS_OMM_VERS = 2.0
CREATION_DATE  = 
ORIGINATOR     = 

OBJECT_NAME    = SL-14 R/B
OBJECT_ID      = 1986-006B
CENTER_NAME    = EARTH
REF_FRAME      = TEME
TIME_SYSTEM    = UTC
MEAN_ELEMENT_THEORY = SGP/SGP4

EPOCH          = 2025-12-25T06:52:08.795424
MEAN_MOTION    = 14.86686801
ECCENTRICITY   = .00772757
INCLINATION    = 82.5272
RA_OF_ASC_NODE = 329.7453
ARG_OF_PERICENTER = 158.2011
MEAN_ANOMALY   = 202.2526

EPHEMERIS_TYPE = 0
CLASSIFICATION_TYPE = U
NORAD_CAT_ID   = 16496
ELEMENT_SET_NO = 999
REV_AT_EPOCH   = 13815
BSTAR          = .63530996E-4
MEAN_MOTION_DOT = .623E-5
MEAN_MOTION_DDOT = 0

CCSDS_OMM_VERS = 2.0
CREATION_DATE  = 
ORIGINATOR     = 

OBJECT_NAME    = COSMOS 1743
OBJECT_ID      = 1986-034A
CENTER_NAME    = EARTH
REF_FRAME      = TEME
TIME_SYSTEM    = UTC
MEAN_ELEMENT_THEORY = SGP/SGP4

EPOCH          = 2025-12-24T21:37:21.539136
MEAN_MOTION    = 15.52832870
ECCENTRICITY   = .0004971
INCLINATION    = 82.5352
RA_OF_ASC_NODE = 151.9536
ARG_OF_PERICENTER = 202.7021
MEAN_ANOMALY   = 157.4012

EPHEMERIS_TYPE = 0
CLASSIFICATION_TYPE = U
NORAD_CAT_ID   = 16719
ELEMENT_SET_NO = 999
REV_AT_EPOCH   = 16862
BSTAR          = .51251E-3
MEAN_MOTION_DOT = .31881E-3
MEAN_MOTION_DDOT = 0

